2006 SD6,e,35.7489,169.9872,264.8580,1.515704,0.5281809,0.30163131,179.5820,08/27.0/2011,2000,H20.2,0.15
2006 SE6,e,4.8182,347.5228,182.9388,0.805150,1.3642329,0.34558668,125.8710,08/27.0/2011,2000,H22.8,0.15
2006 SF6,e,5.8657,228.1344,305.6114,0.949201,1.0657777,0.28049831,308.9311,08/27.0/2011,2000,H19.9,0.15
2006 SA7,e,35.6120,0.6770,265.0831,1.988350,0.3515318,0.36123636,331.4900,08/27.0/2011,2000,H19.5,0.15
2006 SC7,e,25.8246,0.3438,68.1995,1.655297,0.4627965,0.07781827,298.1371,09/22.0/2006,2000,H20.0,0.15
2006 SF7,e,23.9489,180.4196,285.0110,1.040034,0.9292507,0.20925693,153.0844,08/27.0/2011,2000,H22.3,0.15
2006 SG7,e,4.7647,2.2840,133.3259,1.042934,0.9253770,0.56135564,152.1916,08/27.0/2011,2000,H22.9,0.15
2006 SH7,e,5.0999,83.2099,344.5178,2.482269,0.2520176,0.54423897,78.1344,08/27.0/2011,2000,H19.7,0.15
2006 SO19,e,14.2427,98.3660,169.6744,1.242396,0.7117281,0.27208412,258.8462,08/27.0/2011,2000,H19.4,0.15
2006 SP19,e,4.5917,358.5351,166.0247,0.880964,1.1919731,0.29309628,190.8666,08/27.0/2011,2000,H24.2,0.15
2006 SQ19,e,6.2400,349.6549,13.8845,2.355256,0.2726760,0.51177205,129.6462,08/27.0/2011,2000,H23.2,0.15
2006 SR19,e,2.9026,351.2343,33.5388,2.803780,0.2099366,0.55776398,13.2763,08/27.0/2011,2000,H21.9,0.15
2006 SS19,e,11.6005,154.4504,142.2822,2.802891,0.2100365,0.57406379,38.0812,08/27.0/2011,2000,H18.8,0.15
2006 SD25,e,1.4525,296.8815,37.1619,1.916046,0.3716167,0.46855030,316.8200,08/27.0/2011,2000,H24.0,0.15
2006 SU49,e,2.5183,303.1984,198.9304,1.412711,0.5869811,0.31211957,215.7797,08/27.0/2011,2000,H19.5,0.15
2006 SK61,e,0.3540,304.6652,62.4862,1.380373,0.6077282,0.26431593,9.2851,08/27.0/2011,2000,H26.1,0.15
2006 SF77,e,32.4529,1.2718,224.3451,0.921754,1.1137342,0.32897491,308.3109,08/27.0/2011,2000,H21.6,0.15
2006 SG77,e,7.6121,237.5160,158.1674,2.813580,0.2088407,0.57804977,8.1457,08/27.0/2011,2000,H20.7,0.15
2006 SO77,e,2.1458,354.6317,339.7657,1.817430,0.4022700,0.46255733,11.9435,08/27.0/2011,2000,H26.5,0.15
2006 SO78,e,17.3398,4.5609,352.5253,1.879724,0.3824396,0.56027578,335.6519,08/27.0/2011,2000,H18.9,0.15
2006 SQ78,e,36.0640,208.1417,32.9353,1.171858,0.7769478,0.33903863,62.7628,08/27.0/2011,2000,H18.8,0.15
2006 SR78,e,20.0567,13.7018,267.8918,2.160905,0.3102776,0.56130724,228.5523,08/27.0/2011,2000,H20.2,0.15
2006 SU114,e,3.7979,346.4019,56.9493,3.176867,0.1740626,0.59114985,299.5600,08/27.0/2011,2000,H18.6,0.15
2006 SN131,e,6.0799,2.8674,1.4512,2.120733,0.3191356,0.52023412,212.8585,08/27.0/2011,2000,H26.3,0.15
2006 SP131,e,20.1268,3.2790,100.8845,1.123393,0.8277641,0.30973533,341.1457,08/27.0/2011,2000,H25.3,0.15
2006 SQ131,e,12.8405,185.0036,166.3787,1.721400,0.4363966,0.30539006,71.0780,08/27.0/2011,2000,H22.6,0.15
2006 SR131,e,0.6315,184.8945,121.0034,1.351964,0.6269842,0.33676527,75.0367,08/27.0/2011,2000,H28.0,0.15
2006 SS131,e,4.7256,183.3200,159.6548,1.622853,0.4767440,0.38097950,144.9381,08/27.0/2011,2000,H25.7,0.15
2006 ST131,e,32.8817,194.4868,265.7412,1.469727,0.5531580,0.31654767,218.9533,08/27.0/2011,2000,H21.4,0.15
2006 SU131,e,9.6565,107.4414,167.6423,1.727732,0.4339998,0.39559907,116.8387,08/27.0/2011,2000,H18.7,0.15
2006 SJ134,e,26.0741,129.8378,303.1628,2.204364,0.3011475,0.47670976,162.1521,08/27.0/2011,2000,H18.0,0.15
2006 SK134,e,34.6925,185.3109,74.3025,1.879745,0.3824333,0.53595504,359.5738,08/27.0/2011,2000,H18.4,0.15
2006 SQ134,e,10.1678,186.7878,247.0710,1.242573,0.7115758,0.25236377,154.4387,08/27.0/2011,2000,H24.7,0.15
2006 SR134,e,1.5989,45.1728,262.4566,1.883196,0.3813825,0.46246587,346.3027,08/27.0/2011,2000,H23.1,0.15
2006 SS134,e,19.5407,9.0988,256.0201,1.171384,0.7774190,0.44188857,4.5347,08/27.0/2011,2000,H21.4,0.15
2006 SV134,e,21.5468,217.2842,64.3065,1.867818,0.3861022,0.48006892,18.1915,08/27.0/2011,2000,H18.8,0.15
2006 SB142,e,7.6694,9.6858,18.1178,2.236024,0.2947742,0.43231205,160.7823,08/27.0/2011,2000,H22.1,0.15
2006 SV189,e,15.8643,4.3168,61.2416,1.892546,0.3785596,0.32153947,285.7722,08/27.0/2011,2000,H19.7,0.15
2006 SJ198,e,2.4334,266.8966,212.2415,2.089357,0.3263512,0.45608268,138.9284,08/27.0/2011,2000,H17.9,0.15
2006 SL198,e,16.5563,173.2985,213.0599,1.799578,0.4082705,0.37405327,355.1564,08/27.0/2011,2000,H18.3,0.15
2006 SM198,e,11.0684,359.3435,345.1293,2.367718,0.2705260,0.53389389,129.0057,08/27.0/2011,2000,H21.6,0.15
2006 SN198,e,1.6108,195.7660,71.2964,1.257645,0.6988229,0.51199169,213.2647,08/27.0/2011,2000,H26.1,0.15
2006 SO198,e,10.1174,10.0468,125.9248,1.998919,0.3487477,0.87111235,249.7507,08/27.0/2011,2000,H23.9,0.15
2006 SP198,e,6.9297,192.7034,226.3602,2.932916,0.1962251,0.57459262,339.8614,08/27.0/2011,2000,H21.7,0.15
2006 SU217,e,2.6409,193.9777,37.9117,0.986189,1.0063846,0.17441179,123.8072,08/27.0/2011,2000,H25.3,0.15
2006 SV217,e,0.8716,179.3831,97.3476,1.309618,0.6576386,0.34497225,149.1152,08/27.0/2011,2000,H24.5,0.15
2006 SW217,e,4.0036,48.2930,345.4641,2.845777,0.2053065,0.54144643,3.2275,08/27.0/2011,2000,H20.3,0.15
2006 SX217,e,21.0511,32.6733,176.1925,1.411076,0.5880016,0.30981613,151.2181,08/27.0/2011,2000,H18.8,0.15
2006 SY217,e,6.6146,23.7272,49.9417,1.927748,0.3682381,0.43959322,277.4934,08/27.0/2011,2000,H21.6,0.15
2006 SF281,e,1.4764,10.1836,358.7945,1.493354,0.5400821,0.32145515,247.0007,08/27.0/2011,2000,H27.1,0.15
2006 SV301,e,5.3098,105.1493,30.4349,5.099748,0.0855817,0.49576737,137.1007,08/27.0/2011,2000,H14.3,0.15
2006 TB,e,27.5661,169.3595,180.8841,1.561985,0.5048805,0.32452548,190.0190,08/27.0/2011,2000,H20.1,0.15
2006 TC,e,19.6503,152.3831,60.9025,1.538608,0.5164307,0.91195763,227.8015,08/27.0/2011,2000,H18.8,0.15
2006 TD,e,8.1832,166.5197,159.3927,1.591795,0.4907647,0.39385002,176.5001,08/27.0/2011,2000,H22.4,0.15
2006 TF,e,3.4874,187.8371,182.4324,2.319645,0.2789792,0.55959124,139.5112,08/27.0/2011,2000,H25.9,0.15
2006 TK,e,6.4359,40.1273,252.5467,2.162669,0.3098981,0.51104244,231.6116,08/27.0/2011,2000,H19.7,0.15
2006 TL,e,11.6153,195.4142,315.2296,0.940321,1.0809107,0.39759366,36.5727,08/27.0/2011,2000,H24.0,0.15
2006 TM,e,24.7649,224.2535,31.6427,1.681573,0.4519915,0.12685472,192.0176,08/27.0/2011,2000,H18.2,0.15
2006 TN,e,17.2754,24.3920,131.5873,1.561444,0.5051433,0.34519071,70.2934,08/27.0/2011,2000,H19.8,0.15
2006 TO,e,4.7209,204.8881,202.6715,2.419084,0.2619557,0.51520964,100.4551,08/27.0/2011,2000,H22.9,0.15
2006 TC1,e,4.4951,326.1365,160.7604,1.720206,0.4368512,0.37498232,351.9226,08/27.0/2011,2000,H18.9,0.15
2006 TD1,e,2.4205,57.2187,5.6563,1.893046,0.3784099,0.36098748,295.9730,08/27.0/2011,2000,H21.0,0.15
2006 TF1,e,5.1146,44.7119,297.3778,2.564412,0.2400062,0.60567614,74.7753,08/27.0/2011,2000,H20.5,0.15
2006 TB7,e,21.2563,185.1605,154.0426,1.251351,0.7041015,0.19919850,199.2723,08/27.0/2011,2000,H23.7,0.15
2006 TH7,e,17.5823,162.9353,336.6068,2.524766,0.2456815,0.83460997,58.5537,08/27.0/2011,2000,H19.2,0.15
2006 TJ7,e,11.6934,193.4614,193.9299,1.782261,0.4142353,0.42239302,13.6607,08/27.0/2011,2000,H24.2,0.15
2006 TR7,e,2.8658,182.8819,120.2094,1.327328,0.6445208,0.37753623,104.5640,08/27.0/2011,2000,H25.2,0.15
2006 TS7,e,5.4680,225.3816,299.8076,0.946752,1.0699168,0.57986909,15.8634,08/27.0/2011,2000,H21.2,0.15
2006 TT7,e,12.9348,70.0312,296.1479,2.856840,0.2041152,0.56319891,8.5449,08/27.0/2011,2000,H19.5,0.15
2006 TU7,e,2.9121,91.8924,68.6539,0.850842,1.2558294,0.47012751,335.8379,08/27.0/2011,2000,H21.9,0.15
2006 TA8,e,21.8844,208.0919,217.8669,3.061645,0.1839805,0.70191230,321.1726,08/27.0/2011,2000,H20.9,0.15
2006 TC8,e,31.5597,204.4739,67.2886,2.152071,0.3121901,0.76106710,215.5062,08/27.0/2011,2000,H19.9,0.15
2006 TM95,e,43.0136,205.5668,160.6776,2.682455,0.2243393,0.24172308,50.0070,08/27.0/2011,2000,H15.9,0.15
2006 UA,e,14.3286,23.2952,270.6744,1.528695,0.5214619,0.48603012,239.7138,08/27.0/2011,2000,H20.0,0.15
2006 UE,e,5.0170,21.9917,12.4022,2.807959,0.2094681,0.57432883,8.5899,08/27.0/2011,2000,H22.4,0.15
2006 UF,e,6.9462,207.5823,203.5977,2.456937,0.2559252,0.52948507,87.8436,08/27.0/2011,2000,H22.3,0.15
2006 UJ,e,5.3516,203.4027,164.5902,2.229229,0.2961230,0.49327264,171.1646,08/27.0/2011,2000,H23.9,0.15
2006 UK,e,4.7240,244.1880,252.1098,1.491435,0.5411249,0.53856634,182.5674,08/27.0/2011,2000,H20.1,0.15
2006 UL,e,7.2428,204.6418,165.1655,1.403573,0.5927230,0.26995871,339.4808,08/27.0/2011,2000,H26.1,0.15
2006 UM,e,15.9045,57.0645,55.2589,2.232823,0.2954083,0.53953926,138.9859,08/27.0/2011,2000,H18.5,0.15
2006 UN,e,0.4941,323.4407,71.9715,1.548924,0.5112802,0.33068747,181.7689,08/27.0/2011,2000,H25.5,0.15
2006 UO,e,2.2942,26.0987,77.6505,2.829149,0.2071192,0.66513038,356.1215,08/27.0/2011,2000,H21.0,0.15
2006 UR,e,5.3254,263.3385,200.0447,2.018567,0.3436681,0.44781335,207.2897,08/27.0/2011,2000,H19.4,0.15
2006 UX1,e,20.2844,21.0088,96.4028,1.711031,0.4403694,0.39393923,15.0887,08/27.0/2011,2000,H22.1,0.15
2006 UY16,e,3.2594,21.1999,337.8376,2.224973,0.2969731,0.53959058,172.6620,08/27.0/2011,2000,H24.5,0.15
2006 UA17,e,22.0495,207.7957,116.8770,1.377737,0.6094734,0.28941224,35.7366,08/27.0/2011,2000,H23.8,0.15
2006 UB17,e,1.9837,213.9658,135.2262,1.140067,0.8096705,0.10333496,26.4940,08/27.0/2011,2000,H26.3,0.15
2006 UD17,e,16.8253,233.0339,149.0193,3.213980,0.1710564,0.65397018,306.4257,08/27.0/2011,2000,H18.4,0.15
2006 UE17,e,12.1359,27.7669,115.2764,1.176117,0.7727307,0.33248921,217.6598,08/27.0/2011,2000,H21.8,0.15
2006 UF17,e,3.7388,47.8872,235.4700,2.488490,0.2510731,0.81057894,98.4041,08/27.0/2011,2000,H21.5,0.15
2006 UQ17,e,1.7439,82.1161,10.2794,1.623753,0.4763475,0.38077041,92.2088,08/27.0/2011,2000,H21.9,0.15
2006 UT17,e,2.0315,15.4383,49.5840,2.344941,0.2744771,0.54040551,117.3525,08/27.0/2011,2000,H24.2,0.15
2006 UU17,e,2.8834,209.1287,151.2682,2.323072,0.2783621,0.58263336,139.2512,08/27.0/2011,2000,H26.6,0.15
2006 UC63,e,16.6625,219.6942,327.9584,1.472470,0.5516127,0.28216848,112.2845,08/27.0/2011,2000,H19.8,0.15
2006 UD63,e,7.4058,148.8373,135.4380,2.314310,0.2799445,0.46783238,182.3944,08/27.0/2011,2000,H19.2,0.15
2006 UE63,e,6.1923,6.8755,15.9808,4.289827,0.1109288,0.63024376,197.5158,08/27.0/2011,2000,H19.8,0.15
